GLOBALSTAR M063         
1 26081U 00008A   24209.83861009 -.00000046  00000+0  53104-3 0  9993
2 26081  51.9925 245.7833 0004389  53.6571 118.3237 11.86158945119085
GLOBALSTAR M062         
1 26082U 00008B   24210.04621449 -.00000043  00000+0  39697-3 0  9999
2 26082  51.9869 328.9669 0007704 138.6206  41.9548 12.43441048118793
GLOBALSTAR M060         
1 26083U 00008C   24210.23214354 -.00000021  00000+0  69145-3 0  9991
2 26083  51.9994 242.5975 0003581 187.7587 247.3599 12.17637912113072
GLOBALSTAR M064         
1 26084U 00008D   24210.10639994 -.00000066  00000+0  24496-3 0  9998
2 26084  52.0058 347.7252 0002077 137.1946 222.9049 11.88520534128678
GLOBALSTAR M065         
1 31571U 07020A   24209.97926162 -.00000077  00000+0  14850-3 0  9990
2 31571  51.9888 133.0264 0009936 312.1898 127.7109 12.61974847792471
GLOBALSTAR M069         
1 31573U 07020C   24206.78824693 -.00000035  00000+0  38301-3 0  9995
2 31573  51.9950  98.5154 0001005  42.3114   0.4187 12.62277998793207
GLOBALSTAR M072         
1 31574U 07020D   24209.94635875 -.00000070  00000+0  18710-3 0  9990
2 31574  52.0059 184.8770 0000558 319.9572  57.8663 12.62260567791876
GLOBALSTAR M071         
1 31576U 07020F   24209.91234122 -.00000059  00000+0  25225-3 0  9995
2 31576  52.0069  94.2040 0001176  73.6872  10.2439 12.62271014454786
